OBJECT_NAME,OBJECT_ID,EPOCH,MEAN_MOTION,ECCENTRICITY,INCLINATION,RA_OF_ASC_NODE,ARG_OF_PERICENTER,MEAN_ANOMALY,EPHEMERIS_TYPE,CLASSIFICATION_TYPE,NORAD_CAT_ID,ELEMENT_SET_NO,REV_AT_EPOCH,BSTAR,MEAN_MOTION_DOT,MEAN_MOTION_DDOT
TRITON-1,2013-066M,2026-07-02T15:00:06.535296,14.81753948,.00895434,97.8239,93.0805,183.0316,177.0367,0,U,39427,999,67637,.17901595E-3,.1456E-4,0
GOMX-1,2013-066Q,2026-07-02T12:09:31.848768,14.69510115,.01293787,97.6468,23.0020,28.8657,331.9628,0,U,39430,999,67216,.23355225E-3,.1523E-4,0
CUBEBUG-2 (LO-74),2013-066AA,2026-07-02T14:28:44.926464,14.93890310,.00566514,97.8915,132.6479,338.1191,21.7609,0,U,39440,999,67929,.50528071E-3,.5482E-4,0
NEE-02 KRYSAOR,2013-066AB,2026-07-02T13:19:12.298080,14.86690645,.00666089,97.8896,122.6607,20.7402,339.6493,0,U,39441,999,67848,.32515937E-3,.295E-4,0
FUNCUBE-1 (AO-73),2013-066AE,2026-07-02T10:26:09.275712,15.09675808,.00372882,97.8285,155.2011,149.2742,211.0681,0,U,39444,999,68196,.46292181E-3,.7511E-4,0
UWE-3,2013-066AG,2026-07-02T14:07:12.975168,14.97137588,.00471928,97.8709,139.7682,268.5027,91.0788,0,U,39446,999,67988,.30245019E-3,.3508E-4,0
SMDC ONE 2.4,2013-072H,2026-07-02T13:04:32.226816,15.18507552,.01470635,120.4917,51.3910,35.2555,325.8145,0,U,39469,999,12016,.4681996E-3,.12576E-3,0
COSMOS 2488 (RODNIK-S 7),2013-076A,2026-07-02T15:41:46.312800,12.42905959,.00208395,82.4837,159.0588,63.4759,296.8454,0,U,39483,999,56781,-.17664803E-3,-.14E-6,0
COSMOS 2489 (RODNIK-S 8),2013-076B,2026-07-02T15:06:31.929408,12.42879138,.00226675,82.4872,160.4579,63.3754,296.9644,0,U,39484,999,56786,-.12207741E-2,-.159E-5,0
COSMOS 2490 (RODNIK-S 9),2013-076C,2026-07-02T14:26:05.076960,12.42878380,.00229025,82.4820,158.5361,78.2343,282.1304,0,U,39485,999,56779,-.74533039E-3,-.93E-6,0
KAZEOSAT 1,2014-024A,2026-07-02T15:11:48.757344,14.42086933,.00011655,98.3205,255.6965,77.5473,282.5847,0,U,39731,999,64078,.14808027E-3,.444E-5,0
COSMOS 2496 (RODNIK-S 10),2014-028A,2026-07-02T13:24:52.928352,12.42878997,.00212336,82.4464,99.1048,47.2221,313.0640,0,U,39761,999,54942,.21892536E-3,.4E-6,0
COSMOS 2497 (RODNIK-S 11),2014-028B,2026-07-02T14:44:55.183776,12.42894683,.00217384,82.4513,100.7656,42.2898,317.9853,0,U,39762,999,54943,.1051975E-3,.24E-6,0
COSMOS 2498 (RODNIK-S 12),2014-028C,2026-07-02T16:07:02.200800,12.42980802,.00224318,82.4472,99.2104,41.7764,318.5023,0,U,39763,999,54947,.68706902E-3,.105E-5,0
HODOYOSHI-4,2014-033B,2026-07-02T15:12:23.831424,14.88161499,.00220212,97.5450,7.7105,253.9324,105.9469,0,U,40011,999,65110,.8347541E-4,.72E-5,0
UNISAT-6,2014-033C,2026-07-02T09:28:59.004768,14.88320443,.00452545,97.7896,335.8406,20.1232,340.1756,0,U,40012,999,64842,.31173307E-3,.2882E-4,0
DEIMOS-2,2014-033D,2026-07-02T14:09:59.218272,14.93764312,.00008148,97.5804,57.5366,73.1694,286.9615,0,U,40013,999,64002,.13812736E-3,.1409E-4,0
BUGSAT-1 (TITA),2014-033E,2026-07-02T14:48:06.824160,15.15762348,.00289129,98.0435,277.0702,126.8389,233.5500,0,U,40014,999,65817,.41029115E-3,.7837E-4,0
SAUDISAT 4,2014-033G,2026-07-02T09:40:20.876160,14.79563911,.00453255,97.7602,329.0128,25.6126,334.7318,0,U,40016,999,64832,.95331548E-4,.674E-5,0
APRIZESAT 9,2014-033J,2026-07-02T14:45:34.127712,14.74237994,.00668595,97.9081,316.4379,149.7034,210.8067,0,U,40018,999,64583,.14127756E-3,.915E-5,0
BRITE-CA1 (TORONTO),2014-033L,2026-07-02T14:19:42.763872,14.72702923,.00776033,97.9759,312.2426,226.8808,132.5892,0,U,40020,999,64448,.18039901E-3,.1152E-4,0
